OBJECT_NAME,OBJECT_ID,EPOCH,MEAN_MOTION,ECCENTRICITY,INCLINATION,RA_OF_ASC_NODE,ARG_OF_PERICENTER,MEAN_ANOMALY,EPHEMERIS_TYPE,CLASSIFICATION_TYPE,NORAD_CAT_ID,ELEMENT_SET_NO,REV_AT_EPOCH,BSTAR,MEAN_MOTION_DOT,MEAN_MOTION_DDOT
SPACEMOBILE-006,2025-309A,2026-07-20T08:15:28.381536,15.18671763,.00095935,52.9942,179.7458,233.1495,126.8619,0,U,67232,999,3163,.10373706E-3,.1858E-4,0
SPACEMOBILE-008,2026-139A,2026-07-20T04:10:16.862592,15.12806988,.0005247,52.9951,112.8041,68.3967,291.7583,0,U,69589,999,497,.36450013E-4,.346E-5,0
SPACEMOBILE-009,2026-139B,2026-07-20T16:54:43.839648,15.12705688,.0005556,52.9943,110.4133,65.8193,294.3378,0,U,69590,999,505,.73841E-4,.1007E-4,0
SPACEMOBILE-010,2026-139C,2026-07-20T10:39:28.228608,15.12541945,.00055238,52.9948,111.6389,57.7793,302.3732,0,U,69591,999,502,.744967E-4,.1013E-4,0
