SPACEMOBILE-006         
1 67232U 25309A   26201.34407849  .00001858  00000+0  10374-3 0  9998
2 67232  52.9942 179.7458 0009593 233.1495 126.8619 15.18671763 31638
SPACEMOBILE-008         
1 69589U 26139A   26201.17380628  .00000346  00000+0  36450-4 0  9998
2 69589  52.9951 112.8041 0005247  68.3967 291.7583 15.12806988  4977
SPACEMOBILE-009         
1 69590U 26139B   26201.70467407  .00001007  00000+0  73841-4 0  9990
2 69590  52.9943 110.4133 0005556  65.8193 294.3378 15.12705688  5058
SPACEMOBILE-010         
1 69591U 26139C   26201.44407672  .00001013  00000+0  74497-4 0  9995
2 69591  52.9948 111.6389 0005523  57.7793 302.3732 15.12541945  5025
